GLOBALSTAR M068         
1 32266U 07048D   24194.53620181 -.00000058  00000+0  25360-3 0  9996
2 32266  51.9875 257.6040 0001274 122.5460  17.6919 12.62794140774641
GLOBALSTAR M079         
1 37188U 10054A   24194.87678625 -.00000089  00000+0  81488-4 0  9996
2 37188  52.0046  92.7004 0000468  37.2653  39.7405 12.62261319634286
GLOBALSTAR M074         
1 37189U 10054B   24194.44909071 -.00000078  00000+0  14350-3 0  9993
2 37189  52.0020  93.3788 0000681  54.6662 116.9104 12.62270178634158
GLOBALSTAR M076         
1 37190U 10054C   24194.47519156 -.00000090  00000+0  77681-4 0  9990
2 37190  52.0034  93.4387 0000826  22.3351 148.4737 12.62262608633878
GLOBALSTAR M077         
1 37191U 10054D   24194.58839109 -.00000093  00000+0  59498-4 0  9995
2 37191  52.0082  49.8524 0000858  72.7899 312.7552 12.62261270634260
GLOBALSTAR M075         
1 37192U 10054E   24194.56774758 -.00000082  00000+0  12019-3 0  9997
2 37192  51.9938 135.6027 0000340  35.6663 135.8031 12.62261432633113
GLOBALSTAR M073         
1 37193U 10054F   24194.61670208 -.00000090  00000+0  74959-4 0  9990
2 37193  52.0071  49.0158 0000807  62.5967 330.2144 12.62266944634953
GLOBALSTAR M083         
1 37739U 11033A   24194.79971501 -.00000070  00000+0  18957-3 0  9996
2 37739  51.9877 357.6514 0000765 109.6133 337.0293 12.62262175604359
GLOBALSTAR M088         
1 37740U 11033B   24194.62928223 -.00000083  00000+0  11798-3 0  9993
2 37740  51.9728 263.9497 0000506 160.0567 351.7882 12.62265113599513
GLOBALSTAR M091         
1 37741U 11033C   24194.56575400 -.00000099  00000+0  27634-4 0  9996
2 37741  51.9973 227.0923 0000488 187.2777 334.2648 12.62264684600290
GLOBALSTAR M085         
1 37742U 11033D   24194.39162632 -.00000091  00000+0  71316-4 0  9995
2 37742  51.9839 178.9576 0000117 215.4060 295.9553 12.62263275600785
GLOBALSTAR M081         
1 37743U 11033E   24194.49748546 -.00000095  00000+0  47344-4 0  9999
2 37743  51.9930 181.2137 0000276 275.2801 236.5952 12.62266848600942
GLOBALSTAR M089         
1 37744U 11033F   24194.62091898 -.00000082  00000+0  11923-3 0  9995
2 37744  51.9921 135.1317 0000705  18.0110 153.5910 12.62265789601805
GLOBALSTAR M084         
1 38040U 11080A   24194.86539490 -.00000100  00000+0  21408-4 0  9999
2 38040  52.0026   1.4931 0001012  79.0034  65.4473 12.62264080580099
GLOBALSTAR M080         
1 38041U 11080B   24194.83773448 -.00000088  00000+0  87658-4 0  9994
2 38041  52.0077   3.0644 0000885  64.4349  74.6138 12.62262774580075
GLOBALSTAR M082         
1 38042U 11080C   24194.77601556 -.00000086  00000+0  10027-3 0  9991
2 38042  52.0094 318.6643 0001194 135.7382  22.4609 12.62271012580802
GLOBALSTAR M092         
1 38043U 11080D   24194.56367279 -.00000090  00000+0  75874-4 0  9997
2 38043  52.0096  49.6672 0000946  73.9749 319.1846 12.62263408579067
GLOBALSTAR M090         
1 38044U 11080E   24194.61241027 -.00000091  00000+0  69319-4 0  9994
2 38044  51.9902 313.4086 0000871 131.5428 242.4743 12.62264590580738
GLOBALSTAR M086         
1 38045U 11080F   24194.63855984 -.00000082  00000+0  11906-3 0  9998
2 38045  51.9912 313.8526 0000244 254.1346 119.5715 12.62264206580689
GLOBALSTAR M097         
1 39072U 13005A   24194.42499562 -.00000107  00000+0 -19791-4 0  9991
2 39072  52.0024 228.7088 0000351 194.1520 165.9337 12.62268839527906
GLOBALSTAR M093         
1 39073U 13005B   24194.55654082 -.00000096  00000+0  42395-4 0  9998
2 39073  51.9784 222.1517 0000446 212.6616 147.4223 12.62275888527877
GLOBALSTAR M094         
1 39074U 13005C   24194.55656165 -.00000093  00000+0  57343-4 0  9999
2 39074  51.9947 136.1918 0000204   1.9997 358.0871 12.62267383529480
GLOBALSTAR M096         
1 39075U 13005D   24194.64890284 -.00000099  00000+0  25917-4 0  9990
2 39075  52.0044 184.1605 0000275 228.4200 131.6643 12.62267514528766
GLOBALSTAR M078         
1 39076U 13005E   24194.54346337  .00000047  00000+0  84117-3 0  9993
2 39076  51.9869 269.4566 0001427 140.9294 219.1676 12.62273380527028
GLOBALSTAR M095         
1 39077U 13005F   24194.49031731 -.00000092  00000+0  64983-4 0  9998
2 39077  51.9796 266.9815 0001018 164.6872 195.4025 12.62262100526872
GLOBALSTAR M087         
1 52888U 22064A   24194.51454233 -.00000088  00000+0  76214-4 0  9992
2 52888  51.9754 120.0655 0009935  68.4144 291.7814 13.37578008100911
